[{"OBJECT_NAME":"KANOPUS-V-IK","OBJECT_ID":"2017-042A","EPOCH":"2026-03-09T19:17:12.916608","MEAN_MOTION":15.22854595,"ECCENTRICITY":0.00016151,"INCLINATION":97.364,"RA_OF_ASC_NODE":336.3354,"ARG_OF_PERICENTER":87.4516,"MEAN_ANOMALY":272.6906,"EPHEMERIS_TYPE":0,"CLASSIFICATION_TYPE":"U","NORAD_CAT_ID":42825,"ELEMENT_SET_NO":999,"REV_AT_EPOCH":48024,"BSTAR":0.00016848135,"MEAN_MOTION_DOT":3.875e-5,"MEAN_MOTION_DDOT":0},{"OBJECT_NAME":"STARLINK-6191","OBJECT_ID":"2023-061E","EPOCH":"2026-03-09T22:00:01.999584","MEAN_MOTION":15.17749131,"ECCENTRICITY":0.00020752,"INCLINATION":42.9995,"RA_OF_ASC_NODE":195.7809,"ARG_OF_PERICENTER":287.3386,"MEAN_ANOMALY":87.7798,"EPHEMERIS_TYPE":0,"CLASSIFICATION_TYPE":"U","NORAD_CAT_ID":56378,"ELEMENT_SET_NO":999,"REV_AT_EPOCH":567,"BSTAR":0.055577175,"MEAN_MOTION_DOT":0.01251743,"MEAN_MOTION_DDOT":0}]
